1 31285U 99025BNT 18211.90766381  .00000022  00000-0  23575-4 0  9997
2 31285  98.5621 250.4430 0209669 125.0539   0.4670 14.22568707590819
1 31286U 99025BNU 18212.04731248  .00000786  00000-0  53918-3 0  9998
2 31286 100.8733 247.4130 0105459 124.3548 236.7641 14.00833161578327
1 31287U 99025BNV 18211.07670482 +.00000468 +00000-0 +27919-3 0  9992
2 31287 099.4296 074.7343 0036508 051.0484 309.3930 14.12283532585606
1 31288U 99025BNW 18210.40296506 +.00000557 +00000-0 +23393-3 0  9991
2 31288 098.8146 266.4936 0058669 036.3905 028.1386 14.28994656587817
1 31289U 99025BNX 18211.81616018  .00002649  00000-0  91271-4 0  9997
2 31289  97.4018  54.6690 0198738 186.9756 172.8704 15.14173760619350
1 31290U 99025BNY 18211.12471843  .00001183  00000-0  35442-3 0  9997
2 31290 101.9397 323.1803 0102123 336.4245  23.2269 14.43084587594661
1 31291U 99025BNZ 18211.78376181 +.00001094 +00000-0 +33596-3 0  9998
2 31291 098.5681 154.3967 0075539 111.8013 278.4938 14.41961503592409
1 31292U 99025BPA 18211.36946599 +.00001225 +00000-0 +57893-3 0  9991
2 31292 099.0788 265.6073 0052306 245.0857 114.4877 14.20975651580944
1 31293U 99025BPB 18212.33078771 -.00000009  00000-0  13552-4 0  9993
2 31293  98.6495 239.6590 0127081 253.9123 171.4148 14.29772535593535
1 31294U 99025BPC 18211.98298119  .00000010  00000-0  27424-4 0  9998
2 31294  98.7753 270.7408 0105664 101.6215 259.6838 14.11478591589381
1 31295U 99025BPD 18211.52206422 +.00000144 +00000-0 +12986-3 0  9999
2 31295 098.3385 241.4779 0077535 220.3352 139.2046 13.96019401579332
1 31296U 99025BPE 18211.59790639 +.00000822 +00000-0 +38931-3 0  9996
2 31296 099.0708 322.4974 0041543 118.6128 008.9713 14.22026892588095
1 31297U 99025BPF 18212.03246910  .00000143  00000-0  45593-4 0  9994
2 31297  98.8971 140.5722 0154878 310.8771 108.4551 14.49581119603575
1 31298U 99025BPG 18211.75018814 +.00005383 +00000-0 +44519-3 0  9990
2 31298 098.9965 232.1233 0036017 164.9498 195.2802 14.98947361604712
1 31299U 99025BPH 18211.76569319  .00006438  00000-0  26289-3 0  9999
2 31299  96.9895 318.7391 0216023 133.1079 228.8449 15.05848916607324
1 31300U 99025BPJ 18212.40449338  .00000524  00000-0  35293-3 0  9997
2 31300  99.5526  97.9947 0068090 258.6364 157.8688 14.04381106584072
1 31302U 99025BPL 18207.07821703 +.00000428 +00000-0 +25824-3 0  9998
2 31302 099.4200 063.3438 0036360 055.7002 096.6369 14.12130021581827
1 31303U 99025BPM 18209.92691626 +.00000070 +00000-0 +64807-4 0  9992
2 31303 098.9806 236.0592 0010994 200.1598 159.9140 14.10023767583856
1 31310U 99025BPN 18200.94129896 +.00001290 +00000-0 +78730-3 0  9992
2 31310 098.8724 097.5247 0105932 138.9169 282.8241 14.04969067573951
1 31311U 99025BPP 18212.55442311  .00000509  00000-0  29085-3 0  9994
2 31311  99.0378 237.3591 0023649 197.5938 314.4239 14.14109090581776
1 31312U 99025BPQ 18211.32885595  .00000193  00000-0  16262-3 0  9996
2 31312  98.9553 252.0139 0066397 137.7167 283.3227 13.98152985577193
1 31313U 99025BPR 18211.60289529 +.00000061 +00000-0 +51162-4 0  9996
2 31313 099.1100 354.8692 0046043 283.4681 076.1365 14.19300331588519
1 31314U 99025BPS 18181.88084399 +.00000310 +00000-0 +22211-3 0  9990
2 31314 098.9440 214.2515 0080974 036.5314 324.1338 14.02693533574374
1 31316U 99025BPU 18211.92833709 +.00000709 +00000-0 +41117-3 0  9996
2 31316 099.0263 259.2371 0118287 299.1633 059.7742 14.08677964263270
1 31317U 99025BPV 18212.19517185  .00003290  00000-0  95915-3 0  9997
2 31317  99.3777 117.3671 0090666 276.8015  82.2862 14.42577994584491
1 31318U 99025BPW 09299.98461400 +.00000187 +00000-0 +89836-4 0  9996
2 31318 098.9486 317.9650 0154146 204.5999 156.2858 14.24264095132752
1 31319U 99025BPX 18212.06424951 -.00000031  00000-0  71760-5 0  9998
2 31319  98.8229 286.4383 0172146  71.5189  45.8572 13.74905880567603
1 31320U 99025BPY 18211.21394411  .00000534  00000-0  35622-3 0  9995
2 31320  98.3011 203.4938 0126976 210.2940 149.0845 14.01011630575400
1 31321U 99025BPZ 18211.01593770 +.00000023 +00000-0 +36326-4 0  9999
2 31321 098.8703 297.4305 0029274 262.3499 097.4348 14.12436771193617
1 31322U 99025BQA 18211.10244507 -.00000014  00000-0  21598-4 0  9997
2 31322  98.5646 162.3304 0242254   8.2201  46.9204 13.71635794568798
1 31323U 99025BQB 18212.53621598  .00000445  00000-0  27045-3 0  9994
2 31323  99.4288  66.4065 0040093  56.7720 303.7282 14.11439396580339
1 31324U 99025BQC 18211.25247058 +.00000001 +00000-0 +25970-4 0  9992
2 31324 099.2798 013.9723 0049846 303.4233 056.2176 14.13305075584433
1 31325U 99025BQD 18211.93000012 +.00000307 +00000-0 +22182-3 0  9995
2 31325 099.1188 271.7234 0085487 167.6319 192.6972 14.02406464219417
1 31326U 99025BQE 18211.68831540  .00001158  00000-0  55204-3 0  9992
2 31326  99.0395 292.7980 0056544 248.7787 110.7343 14.20516032581913
1 31327U 99025BQF 18211.91601046 +.00000400 +00000-0 +66796-4 0  9993
2 31327 099.0148 240.3493 0178150 141.4210 219.9880 14.66640746604112
1 31328U 99025BQG 18212.03917367 -.00000007  00000-0  13812-4 0  9999
2 31328  98.4628 248.2617 0105134 224.6593 134.6086 14.27747395591823
1 31329U 99025BQH 18211.29050122 +.00000437 +00000-0 +14655-3 0  9995
2 31329 098.9544 028.6507 0084738 223.9182 135.5249 14.40635835591771
1 31330U 99025BQJ 18211.33605834 +.00000753 +00000-0 +35708-3 0  9991
2 31330 098.9708 242.0679 0035058 138.2659 357.0108 14.22341234585006
1 31331U 99025BQK 18211.83015197 -.00000177 +00000-0 -89282-4 0  9993
2 31331 099.1807 235.5989 0054404 070.8788 289.8256 13.99702867261903
1 31332U 99025BQL 18211.59732840 +.00000103 +00000-0 +89723-4 0  9995
2 31332 098.9293 254.3683 0053933 037.8495 114.1088 14.05200685581114
1 31333U 99025BQM 18211.40259506  .00000273  00000-0  14258-3 0  9997
2 31333  98.7089 270.4056 0107051 276.3760  82.5234 14.19472762584537
1 31334U 99025BQN 18208.89587971  .00000727  00000-0  42433-3 0  9997
2 31334  99.1265 242.3079 0075235  47.4628 313.2862 14.10302281577824
1 31335U 99025BQP 18211.76745847 +.00008674 +00000-0 +57509-3 0  9995
2 31335 098.7863 148.9910 0040657 037.5619 322.8433 15.06896381205394
1 31336U 99025BQQ 18211.25055850  .00000104  00000-0  51010-4 0  9990
2 31336  98.7830 226.4996 0099897 168.5677 252.8418 14.34002251592326
1 31337U 99025BQR 18211.40790573 +.00000902 +00000-0 +26842-3 0  9996
2 31337 099.4461 272.2353 0050305 127.1490 290.3539 14.45285719324975
1 31338U 99025BQS 18211.92083698 +.00000492 +00000-0 +34525-3 0  9998
2 31338 098.8567 090.8180 0094925 109.8828 251.2596 14.00584454259410
1 31339U 99025BQT 18211.56583844 +.00000147 +00000-0 +11567-3 0  9995
2 31339 098.9493 253.7680 0079368 333.3003 026.4088 14.05096097578157
1 31340U 99025BQU 18211.89882123 +.00000702 +00000-0 +37545-3 0  9996
2 31340 099.0463 240.6161 0043385 184.2666 299.2926 14.16023396285942
1 31341U 99025BQV 18211.65939219 +.00000493 +00000-0 +19683-3 0  9990
2 31341 099.5418 281.1486 0073999 198.0886 325.2653 14.32120316589480
1 31342U 99025BQW 18211.76877672 +.00000001 +00000-0 +17014-4 0  9999
2 31342 099.0267 042.2917 0115458 200.5157 159.1370 14.34488198592818
1 31344U 99025BQY 17238.55341583 -.01711175  00000-0 -92398-1 0  9992
2 31344  99.4022 356.0111 0008687   3.7509  56.4025 15.18269137548162
1 31345U 99025BQZ 18211.51779364  .00000982  00000-0  67813-3 0  9993
2 31345  98.1378 116.0718 0086868 187.0671 172.9278 13.99383110577489
1 31346U 99025BRA 18211.86989677 +.00000244 +00000-0 +36610-4 0  9995
2 31346 098.8961 220.0398 0203302 260.2034 220.7913 14.73012795596509
1 31347U 99025BRB 13082.06375482 +.00003417 +00000-0 +11179-2 0  9998
2 31347 098.5096 027.3771 0159368 105.0735 256.8144 14.32129287311382
1 31348U 99025BRC 18212.25794245  .00000393  00000-0  20206-3 0  9994
2 31348  99.2085  16.4935 0038787 209.8099 276.0616 14.20938793580728
1 31349U 99025BRD 18208.06935781 -.00000018 +00000-0 +18092-4 0  9997
2 31349 099.1530 162.4845 0073362 073.6917 287.2299 13.99129166252053
1 31350U 99025BRE 18209.07460781 +.00000095 +00000-0 +54959-4 0  9990
2 31350 098.7453 307.4554 0075124 062.1409 298.7356 14.27520046589495
1 31351U 99025BRF 18211.52743253 +.00000308 +00000-0 +21165-3 0  9991
2 31351 098.8703 246.9802 0096375 043.9610 316.9173 14.04260695235696
1 31352U 99025BRG 07147.17882266 +.00001467 +00000-0 +49795-3 0  9993
2 31352 099.2426 144.9216 0184978 359.9320 000.1805 14.29220088008281
1 31353U 99025BRH 18210.61369045 +.00000166 +00000-0 +72228-4 0  9994
2 31353 099.1120 006.1178 0246635 249.9167 107.5313 14.22979395587074
1 31354U 99025BRJ 10225.02374198 +.00001711 +00000-0 +49501-3 0  9997
2 31354 098.3743 171.9042 0261508 151.6462 288.6853 14.27684578180239
1 31355U 99025BRK 18211.48737563  .00000522  00000-0  12648-3 0  9991
2 31355  98.8694  95.1137 0100544 349.8104 134.6404 14.54756369597218
1 31356U 99025BRL 18211.36749021  .00000560  00000-0  23066-3 0  9999
2 31356  98.7587 266.0314 0058644 354.7348  62.2066 14.29957019587826
1 31357U 99025BRM 18211.27827810 -.00000044 +00000-0 +33589-6 0  9995
2 31357 098.9423 231.9442 0050954 089.9526 328.8212 14.18218801585382
1 31358U 99025BRN 18211.24673781 +.00001289 +00000-0 +43992-3 0  9996
2 31358 098.9092 323.7743 0159623 227.9074 130.8443 14.31355039586922
1 31359U 99025BRP 18211.93524002 +.00000848 +00000-0 +57217-3 0  9999
2 31359 099.2502 244.4935 0093739 219.2446 140.1897 14.01259543256726
1 31360U 99025BRQ 18211.22601669  .00000857  00000-0  64433-3 0  9996
2 31360  97.9984  10.9053 0127516 306.6564  52.2931 13.92893874572775
1 31361U 99025BRR 18211.33301781  .00000016  00000-0  29203-4 0  9995
2 31361  98.6420 261.3650 0044856 267.8276  91.7762 14.16436521585231
1 31362U 99025BRS 18211.90900109 +.00000015 +00000-0 +29885-4 0  9993
2 31362 098.7583 240.7548 0017624 251.6954 108.2303 14.15734284584754
1 31363U 99025BRT 15023.62135407 +.00004798 +00000-0 +29730-2 0  9991
2 31363 098.4778 163.1285 0153435 258.0174 100.2762 13.99941214397319
1 31364U 99025BRU 18212.07859175  .00000188  00000-0  16249-3 0  9990
2 31364  99.2987 255.3844 0114257 329.6051  59.6813 13.95821474572909
